start=new Date('2023-03-03T00:00:00.000Z').valueOf();
sats=[{"FILE":"3849487","NORAD_CAT_ID":"52460","MEAN_ELEMENT_THEORY":"SGP4","ELEMENT_SET_NO":"999","CLASSIFICATION_TYPE":"U","CENTER_NAME":"EARTH","ARG_OF_PERICENTER":"82.7356","ECCENTRICITY":"0.00014730","MEAN_MOTION_DDOT":"0.0000000000000","RCS_SIZE":"LARGE","OBJECT_NAME":"STARLINK-3865","INCLINATION":"53.2177","TIME_SYSTEM":"UTC","REV_AT_EPOCH":"130","LAUNCH_DATE":"2022-05-06","TLE_LINE2":"2 52460  53.2177 329.9867 0001473  82.7356 253.6247 15.08866930  1303","PERIAPSIS":"538.644","EPHEMERIS_TYPE":"0","MEAN_MOTION_DOT":"-0.00034765","REF_FRAME":"TEME","TLE_LINE1":"1 52460U 22049K   23061.83334491 -.00034765  00000-0 -21752-2 0  9997","SITE":"AFETR","PERIOD":"95.436","BSTAR":"-0.00217520000000","OBJECT_TYPE":"PAYLOAD","DECAY_DATE":null,"GP_ID":"227363034","MEAN_MOTION":"15.08866930","MEAN_ANOMALY":"253.6247","OBJECT_ID":"2022-049K","RA_OF_ASC_NODE":"329.9867","EPOCH":"2023-03-02T20:00:01.000224","APOAPSIS":"540.682","SEMIMAJOR_AXIS":"6917.798","COUNTRY_CODE":"US"},{"OBJECT_ID":"2022-049L","MEAN_ANOMALY":"270.8228","MEAN_MOTION":"15.08838863","GP_ID":"227361290","DECAY_DATE":null,"SEMIMAJOR_AXIS":"6917.884","COUNTRY_CODE":"US","APOAPSIS":"540.396","EPOCH":"2023-03-02T17:02:13.441056","RA_OF_ASC_NODE":"320.5938","EPHEMERIS_TYPE":"0","REF_FRAME":"TEME","MEAN_MOTION_DOT":"0.00022306","BSTAR":"0.00141520000000","PERIOD":"95.438","TLE_LINE1":"1 52461U 22049L   23061.70987779  .00022306  00000-0  14152-2 0  9999","SITE":"AFETR","OBJECT_TYPE":"PAYLOAD","CENTER_NAME":"EARTH","ARG_OF_PERICENTER":"89.2871","CLASSIFICATION_TYPE":"U","REV_AT_EPOCH":"4587","RCS_SIZE":"LARGE","TIME_SYSTEM":"UTC","INCLINATION":"53.2167","OBJECT_NAME":"STARLINK-3900","MEAN_MOTION_DDOT":"0.0000000000000","ECCENTRICITY":"0.00009350","PERIAPSIS":"539.102","TLE_LINE2":"2 52461  53.2167 320.5938 0000935  89.2871 270.8228 15.08838863 45879","LAUNCH_DATE":"2022-05-06","FILE":"3849487","MEAN_ELEMENT_THEORY":"SGP4","NORAD_CAT_ID":"52461","ELEMENT_SET_NO":"999"},{"ELEMENT_SET_NO":"999","MEAN_ELEMENT_THEORY":"SGP4","NORAD_CAT_ID":"52462","FILE":"3849487","PERIAPSIS":"539.377","TLE_LINE2":"2 52462  53.2174 330.3192 0001326  98.9674 261.1468 15.08660492 45748","LAUNCH_DATE":"2022-05-06","INCLINATION":"53.2174","RCS_SIZE":"LARGE","OBJECT_NAME":"STARLINK-3903","TIME_SYSTEM":"UTC","REV_AT_EPOCH":"4574","ECCENTRICITY":"0.00013260","MEAN_MOTION_DDOT":"0.0000000000000","CLASSIFICATION_TYPE":"U","ARG_OF_PERICENTER":"98.9674","CENTER_NAME":"EARTH","OBJECT_TYPE":"PAYLOAD","SITE":"AFETR","TLE_LINE1":"1 52462U 22049M   23061.77248760  .00092130  00000-0  57601-2 0  9995","PERIOD":"95.449","BSTAR":"0.00576010000000","REF_FRAME":"TEME","MEAN_MOTION_DOT":"0.00092130","EPHEMERIS_TYPE":"0","APOAPSIS":"541.212","SEMIMAJOR_AXIS":"6918.429","COUNTRY_CODE":"US","RA_OF_ASC_NODE":"330.3192","EPOCH":"2023-03-02T18:32:22.928640","MEAN_ANOMALY":"261.1468","OBJECT_ID":"2022-049M","DECAY_DATE":null,"GP_ID":"227361540","MEAN_MOTION":"15.08660492"},{"RA_OF_ASC_NODE":"320.6057","EPOCH":"2023-03-02T16:56:53.731680","APOAPSIS":"540.380","COUNTRY_CODE":"US","SEMIMAJOR_AXIS":"6917.911","GP_ID":"227362785","DECAY_DATE":null,"MEAN_MOTION":"15.08829888","MEAN_ANOMALY":"240.9451","OBJECT_ID":"2022-049N","OBJECT_TYPE":"PAYLOAD","SITE":"AFETR","TLE_LINE1":"1 52463U 22049N   23061.70617745  .00033510  00000-0  21142-2 0  9990","BSTAR":"0.00211420000000","PERIOD":"95.438","MEAN_MOTION_DOT":"0.00033510","REF_FRAME":"TEME","EPHEMERIS_TYPE":"0","TLE_LINE2":"2 52463  53.2171 320.6057 0000872 119.1628 240.9451 15.08829888 45875","LAUNCH_DATE":"2022-05-06","PERIAPSIS":"539.173","ECCENTRICITY":"0.00008720","MEAN_MOTION_DDOT":"0.0000000000000","INCLINATION":"53.2171","RCS_SIZE":"LARGE","OBJECT_NAME":"STARLINK-3885","TIME_SYSTEM":"UTC","REV_AT_EPOCH":"4587","CLASSIFICATION_TYPE":"U","CENTER_NAME":"EARTH","ARG_OF_PERICENTER":"119.1628","ELEMENT_SET_NO":"999","NORAD_CAT_ID":"52463","MEAN_ELEMENT_THEORY":"SGP4","FILE":"3849487"},{"ELEMENT_SET_NO":"999","NORAD_CAT_ID":"52464","MEAN_ELEMENT_THEORY":"SGP4","FILE":"3849487","LAUNCH_DATE":"2022-05-06","TLE_LINE2":"2 52464  53.2171 332.9766 0001338  66.6050 293.5083 15.08871118 45656","PERIAPSIS":"538.725","ECCENTRICITY":"0.00013380","MEAN_MOTION_DDOT":"0.0000000000000","RCS_SIZE":"LARGE","OBJECT_NAME":"STARLINK-3904","INCLINATION":"53.2171","TIME_SYSTEM":"UTC","REV_AT_EPOCH":"4565","CLASSIFICATION_TYPE":"U","CENTER_NAME":"EARTH","ARG_OF_PERICENTER":"66.6050","OBJECT_TYPE":"PAYLOAD","TLE_LINE1":"1 52464U 22049P   23061.17902962  .00041223  00000-0  25909-2 0  9995","SITE":"AFETR","PERIOD":"95.436","BSTAR":"0.00259090000000","MEAN_MOTION_DOT":"0.00041223","REF_FRAME":"TEME","EPHEMERIS_TYPE":"0","RA_OF_ASC_NODE":"332.9766","EPOCH":"2023-03-02T04:17:48.159168","APOAPSIS":"540.576","COUNTRY_CODE":"US","SEMIMAJOR_AXIS":"6917.785","DECAY_DATE":null,"GP_ID":"227362542","MEAN_MOTION":"15.08871118","MEAN_ANOMALY":"293.5083","OBJECT_ID":"2022-049P"},{"OBJECT_TYPE":"PAYLOAD","TLE_LINE1":"1 52465U 22049Q   23061.10635252  .00027124  00000-0  17155-2 0  9992","SITE":"AFETR","PERIOD":"95.437","BSTAR":"0.00171550000000","MEAN_MOTION_DOT":"0.00027124","REF_FRAME":"TEME","EPHEMERIS_TYPE":"0","RA_OF_ASC_NODE":"323.3035","EPOCH":"2023-03-02T02:33:08.857728","APOAPSIS":"540.534","SEMIMAJOR_AXIS":"6917.864","COUNTRY_CODE":"US","DECAY_DATE":null,"GP_ID":"227361784","MEAN_MOTION":"15.08845391","MEAN_ANOMALY":"232.7777","OBJECT_ID":"2022-049Q","ELEMENT_SET_NO":"999","NORAD_CAT_ID":"52465","MEAN_ELEMENT_THEORY":"SGP4","FILE":"3849487","TLE_LINE2":"2 52465  53.2161 323.3035 0001164 127.3321 232.7777 15.08845391 45785","LAUNCH_DATE":"2022-05-06","PERIAPSIS":"538.924","ECCENTRICITY":"0.00011640","MEAN_MOTION_DDOT":"0.0000000000000","RCS_SIZE":"LARGE","INCLINATION":"53.2161","TIME_SYSTEM":"UTC","OBJECT_NAME":"STARLINK-3863","REV_AT_EPOCH":"4578","CLASSIFICATION_TYPE":"U","CENTER_NAME":"EARTH","ARG_OF_PERICENTER":"127.3321"},{"SEMIMAJOR_AXIS":"6917.863","COUNTRY_CODE":"US","APOAPSIS":"540.652","EPOCH":"2023-03-02T04:01:54.209856","RA_OF_ASC_NODE":"333.0261","OBJECT_ID":"2022-049R","MEAN_ANOMALY":"286.5314","MEAN_MOTION":"15.08845543","GP_ID":"227362034","DECAY_DATE":null,"REF_FRAME":"TEME","MEAN_MOTION_DOT":"0.00033713","EPHEMERIS_TYPE":"0","OBJECT_TYPE":"PAYLOAD","PERIOD":"95.437","BSTAR":"0.00212590000000","TLE_LINE1":"1 52466U 22049R   23061.16798854  .00033713  00000-0  21259-2 0  9998","SITE":"AFETR","CENTER_NAME":"EARTH","ARG_OF_PERICENTER":"73.5825","CLASSIFICATION_TYPE":"U","PERIAPSIS":"538.805","LAUNCH_DATE":"2022-05-06","TLE_LINE2":"2 52466  53.2163 333.0261 0001335  73.5825 286.5314 15.08845543 45657","REV_AT_EPOCH":"4565","OBJECT_NAME":"STARLINK-3840","RCS_SIZE":"LARGE","INCLINATION":"53.2163","TIME_SYSTEM":"UTC","MEAN_MOTION_DDOT":"0.0000000000000","ECCENTRICITY":"0.00013350","FILE":"3849487","ELEMENT_SET_NO":"999","MEAN_ELEMENT_THEORY":"SGP4","NORAD_CAT_ID":"52466"},{"OBJECT_TYPE":"PAYLOAD","SITE":"AFETR","TLE_LINE1":"1 52467U 22049S   23061.76781778  .00006641  00000-0  43498-3 0  9992","PERIOD":"95.438","BSTAR":"0.00043498000000","MEAN_MOTION_DOT":"0.00006641","REF_FRAME":"TEME","EPHEMERIS_TYPE":"0","RA_OF_ASC_NODE":"330.3303","EPOCH":"2023-03-02T18:25:39.456192","APOAPSIS":"541.081","COUNTRY_CODE":"US","SEMIMAJOR_AXIS":"6917.887","GP_ID":"227362292","DECAY_DATE":null,"MEAN_MOTION":"15.08837873","MEAN_ANOMALY":"236.8251","OBJECT_ID":"2022-049S","ELEMENT_SET_NO":"999","NORAD_CAT_ID":"52467","MEAN_ELEMENT_THEORY":"SGP4","FILE":"3849487","TLE_LINE2":"2 52467  53.2154 330.3303 0001921 123.2925 236.8251 15.08837873 45745","LAUNCH_DATE":"2022-05-06","PERIAPSIS":"538.423","ECCENTRICITY":"0.00019210","MEAN_MOTION_DDOT":"0.0000000000000","RCS_SIZE":"LARGE","INCLINATION":"53.2154","TIME_SYSTEM":"UTC","OBJECT_NAME":"STARLINK-3873","REV_AT_EPOCH":"4574","CLASSIFICATION_TYPE":"U","CENTER_NAME":"EARTH","ARG_OF_PERICENTER":"123.2925"},{"CLASSIFICATION_TYPE":"U","CENTER_NAME":"EARTH","ARG_OF_PERICENTER":"85.1897","PERIAPSIS":"538.994","TLE_LINE2":"2 52468  53.2166 332.7793 0000949  85.1897 274.9204 15.08870942 45667","LAUNCH_DATE":"2022-05-06","RCS_SIZE":"LARGE","TIME_SYSTEM":"UTC","INCLINATION":"53.2166","OBJECT_NAME":"STARLINK-3864","REV_AT_EPOCH":"4566","ECCENTRICITY":"0.00009490","MEAN_MOTION_DDOT":"0.0000000000000","FILE":"3849487","ELEMENT_SET_NO":"999","MEAN_ELEMENT_THEORY":"SGP4","NORAD_CAT_ID":"52468","APOAPSIS":"540.307","SEMIMAJOR_AXIS":"6917.786","COUNTRY_CODE":"US","RA_OF_ASC_NODE":"332.7793","EPOCH":"2023-03-02T05:21:22.211136","MEAN_ANOMALY":"274.9204","OBJECT_ID":"2022-049T","GP_ID":"227363035","DECAY_DATE":null,"MEAN_MOTION":"15.08870942","REF_FRAME":"TEME","MEAN_MOTION_DOT":"0.00021500","EPHEMERIS_TYPE":"0","OBJECT_TYPE":"PAYLOAD","SITE":"AFETR","TLE_LINE1":"1 52468U 22049T   23061.22317374  .00021500  00000-0  13637-2 0  9993","BSTAR":"0.00136370000000","PERIOD":"95.436"},{"NORAD_CAT_ID":"52469","MEAN_ELEMENT_THEORY":"SGP4","ELEMENT_SET_NO":"999","FILE":"3849487","MEAN_MOTION_DDOT":"0.0000000000000","ECCENTRICITY":"0.00017900","REV_AT_EPOCH":"4565","INCLINATION":"53.2168","RCS_SIZE":"LARGE","OBJECT_NAME":"STARLINK-3828","TIME_SYSTEM":"UTC","LAUNCH_DATE":"2022-05-06","TLE_LINE2":"2 52469  53.2168 333.0436 0001790 104.8016 255.3175 15.08874610 45650","PERIAPSIS":"538.401","CENTER_NAME":"EARTH","ARG_OF_PERICENTER":"104.8016","CLASSIFICATION_TYPE":"U","BSTAR":"0.00146560000000","PERIOD":"95.435","TLE_LINE1":"1 52469U 22049U   23061.16429752  .00023136  00000-0  14656-2 0  9990","SITE":"AFETR","OBJECT_TYPE":"PAYLOAD","EPHEMERIS_TYPE":"0","MEAN_MOTION_DOT":"0.00023136","REF_FRAME":"TEME","MEAN_MOTION":"15.08874610","DECAY_DATE":null,"GP_ID":"227361291","OBJECT_ID":"2022-049U","MEAN_ANOMALY":"255.3175","EPOCH":"2023-03-02T03:56:35.305728","RA_OF_ASC_NODE":"333.0436","COUNTRY_CODE":"US","SEMIMAJOR_AXIS":"6917.775","APOAPSIS":"540.878"}];
